NORAD_CAT_ID,OBJECT_NAME,OBJECT_TYPE,EPOCH,MEAN_MOTION,ECCENTRICITY,INCLINATION,RA_OF_ASC_NODE,ARG_OF_PERICENTER,MEAN_ANOMALY,BSTAR,MEAN_MOTION_DOT,MEAN_MOTION_DDOT,TLE_LINE0,TLE_LINE1,TLE_LINE2,SEMIMAJOR_AXIS,PERIOD,APOGEE,PERIGEE,DECAYED
49411.0,STARLINK-3162,PAYLOAD,2024-06-16 17:02:17,15.0884129,0.0001305,53.2169,171.7012,86.4148,273.6993,9.1486e-05,1.168e-05,0.0,0 STARLINK-3162,1 49411U 21104D   24168.70992373  .00001168  00000-0  91486-4 0  9996,2 49411  53.2169 171.7012 0001305  86.4148 273.6993 15.08841290143517,6917.876,95.437,540.644,538.839,0.0
49411.0,STARLINK-3162,PAYLOAD,2024-06-17 16:53:05,15.08836107,0.0001371,53.2174,167.2419,90.2673,269.8476,5.7326e-05,6.24e-06,0.0,0 STARLINK-3162,1 49411U 21104D   24169.70353056  .00000624  00000-0  57326-4 0  9997,2 49411  53.2174 167.2419 0001371  90.2673 269.8476 15.08836107143663,6917.892,95.438,540.706,538.809,0.0
49411.0,STARLINK-3162,PAYLOAD,2024-06-18 08:46:56,15.0884108,0.0001283,53.2163,164.2676,89.3466,270.7673,5.9809e-05,6.64e-06,0.0,0 STARLINK-3162,1 49411U 21104D   24170.36592761  .00000664  00000-0  59809-4 0  9991,2 49411  53.2163 164.2676 0001283  89.3466 270.7673 15.08841080144841,6917.877,95.437,540.63,538.855,0.0
49411.0,STARLINK-3162,PAYLOAD,2024-06-18 16:43:51,15.08844449,0.0001287,53.2164,162.7808,87.8439,272.2701,6.9077e-05,8.12e-06,0.0,0 STARLINK-3162,1 49411U 21104D   24170.69712460  .00000812  00000-0  69077-4 0  9990,2 49411  53.2164 162.7808 0001287  87.8439 272.2701 15.08844449143816,6917.867,95.437,540.622,538.841,0.0
49411.0,STARLINK-3162,PAYLOAD,2024-06-19 08:37:43,15.08837302,0.0001316,53.2162,159.8069,87.7462,272.3681,5.6377e-05,6.09e-06,0.0,0 STARLINK-3162,1 49411U 21104D   24171.35953031  .00000609  00000-0  56377-4 0  9998,2 49411  53.2162 159.8069 0001316  87.7462 272.3681 15.08837302143917,6917.889,95.438,540.664,538.843,0.0
49411.0,STARLINK-3162,PAYLOAD,2024-06-19 16:34:38,15.08840564,0.0001328,53.2164,158.3205,87.945,272.1695,6.9484e-05,8.18e-06,0.0,0 STARLINK-3162,1 49411U 21104D   24171.69072797  .00000818  00000-0  69484-4 0  9991,2 49411  53.2164 158.3205 0001328  87.9450 272.1695 15.08840564145040,6917.879,95.438,540.662,538.825,0.0
49411.0,STARLINK-3162,PAYLOAD,2024-06-20 08:28:31,15.08777,0.0001475,53.2161,155.3467,102.6739,257.4418,0.00097892,0.00015299,0.0,0 STARLINK-3162,1 49411U 21104D   24172.35313731  .00015299  00000-0  97892-3 0  9993,2 49411  53.2161 155.3467 0001475 102.6739 257.4418 15.08777000144066,6918.073,95.442,540.958,538.918,0.0
49411.0,STARLINK-3162,PAYLOAD,2024-06-20 16:25:25,15.08847251,0.0001363,53.2161,153.8598,88.3593,271.7556,5.4727e-05,5.83e-06,0.0,0 STARLINK-3162,1 49411U 21104D   24172.68432204  .00000583  00000-0  54727-4 0  9997,2 49411  53.2161 153.8598 0001363  88.3593 271.7556 15.08847251144112,6917.858,95.437,540.666,538.78,0.0
49411.0,STARLINK-3162,PAYLOAD,2024-06-21 05:08:31,15.08834085,0.0001595,53.2182,151.4805,100.5786,259.5386,1.6035e-05,-3.3e-07,0.0,0 STARLINK-3162,1 49411U 21104D   24173.21425225 -.00000033  00000-0  16035-4 0  9993,2 49411  53.2182 151.4805 0001595 100.5786 259.5386 15.08834085145272,6917.898,95.438,540.867,538.66,0.0
49411.0,STARLINK-3162,PAYLOAD,2024-06-21 08:19:17,15.08835202,0.0001614,53.2183,150.8854,101.942,258.1753,2.6148e-05,1.28e-06,0.0,0 STARLINK-3162,1 49411U 21104D   24173.34673144  .00000128  00000-0  26148-4 0  9992,2 49411  53.2183 150.8854 0001614 101.9420 258.1753 15.08835202144210,6917.895,95.438,540.877,538.644,0.0
49411.0,STARLINK-3162,PAYLOAD,2024-06-22 03:23:54,15.08842316,0.0001605,53.2183,147.3174,100.5743,259.543,-4.93e-06,-3.67e-06,0.0,0 STARLINK-3162,1 49411U 21104D   24174.14160847 -.00000367  00000-0 -49300-5 0  9995,2 49411  53.2183 147.3174 0001605 100.5743 259.5430 15.08842316145413,6917.873,95.437,540.849,538.628,0.0
49411.0,STARLINK-3162,PAYLOAD,2024-06-22 04:59:18,15.08839787,0.0001646,53.2186,147.0203,101.6693,258.4483,7.3132e-07,-2.76e-06,0.0,0 STARLINK-3162,1 49411U 21104D   24174.20784972 -.00000276  00000-0  73132-6 0  9992,2 49411  53.2186 147.0203 0001646 101.6693 258.4483 15.08839787144342,6917.881,95.438,540.885,538.607,0.0
49411.0,STARLINK-3162,PAYLOAD,2024-06-22 22:28:32,15.0883378,0.0001459,53.2174,143.7492,96.4032,263.7126,6.5272e-05,7.51e-06,0.0,0 STARLINK-3162,1 49411U 21104D   24174.93649213  .00000751  00000-0  65272-4 0  9991,2 49411  53.2174 143.7492 0001459  96.4032 263.7126 15.08833780144454,6917.899,95.438,540.774,538.755,0.0
49411.0,STARLINK-3162,PAYLOAD,2024-06-23 04:50:05,15.08832276,0.0001295,53.2166,142.559,93.667,266.447,2.011e-05,3.2e-07,0.0,0 STARLINK-3162,1 49411U 21104D   24175.20145558  .00000032  00000-0  20110-4 0  9999,2 49411  53.2166 142.5590 0001295  93.6670 266.4470 15.08832276145571,6917.904,95.438,540.665,538.873,0.0
49411.0,STARLINK-3162,PAYLOAD,2024-06-23 22:19:20,15.08837674,0.0001286,53.2169,139.2868,95.186,264.9279,3.4063e-05,2.54e-06,0.0,0 STARLINK-3162,1 49411U 21104D   24175.93009371  .00000254  00000-0  34063-4 0  9999,2 49411  53.2169 139.2868 0001286  95.1860 264.9279 15.08837674144603,6917.887,95.438,540.642,538.863,0.0
49411.0,STARLINK-3162,PAYLOAD,2024-06-24 03:05:29,15.08839279,0.0001297,53.2168,138.3948,86.5364,273.5777,4.6909e-05,4.59e-06,0.0,0 STARLINK-3162,1 49411U 21104D   24176.12881295  .00000459  00000-0  46909-4 0  9993,2 49411  53.2168 138.3948 0001297  86.5364 273.5777 15.08839279145711,6917.883,95.438,540.645,538.85,0.0
49411.0,STARLINK-3162,PAYLOAD,2024-06-24 06:16:15,15.08842065,0.0001302,53.217,137.8003,89.7903,270.3238,6.7951e-05,7.94e-06,0.0,0 STARLINK-3162,1 49411U 21104D   24176.26129044  .00000794  00000-0  67951-4 0  9997,2 49411  53.2170 137.8003 0001302  89.7903 270.3238 15.08842065144657,6917.874,95.437,540.64,538.838,0.0
49411.0,STARLINK-3162,PAYLOAD,2024-06-25 04:31:40,15.08834449,0.0001327,53.2174,133.6367,86.2369,273.8774,5.6046e-05,6.04e-06,0.0,0 STARLINK-3162,1 49411U 21104D   24177.18865744  .00000604  00000-0  56046-4 0  9996,2 49411  53.2174 133.6367 0001327  86.2369 273.8774 15.08834449145878,6917.897,95.438,540.68,538.844,0.0
49411.0,STARLINK-3162,PAYLOAD,2024-06-25 17:14:44,15.08842651,0.0001421,53.2181,131.2613,98.2534,261.8619,4.2663e-05,3.91e-06,0.0,0 STARLINK-3162,1 49411U 21104D   24177.71857370  .00000391  00000-0  42663-4 0  9994,2 49411  53.2181 131.2613 0001421  98.2534 261.8619 15.08842651144874,6917.872,95.437,540.72,538.754,0.0
49411.0,STARLINK-3162,PAYLOAD,2024-06-26 02:47:03,15.08841418,0.0001384,53.2173,129.476,96.9457,263.1693,2.7579e-05,1.51e-06,0.0,0 STARLINK-3162,1 49411U 21104D   24178.11601443  .00000151  00000-0  27579-4 0  9990,2 49411  53.2173 129.4760 0001384  96.9457 263.1693 15.08841418146019,6917.876,95.437,540.698,538.784,0.0
49411.0,STARLINK-3162,PAYLOAD,2024-06-27 04:13:13,15.08841892,0.0001334,53.2169,124.7133,109.1889,250.9248,5.6048e-05,6.04e-06,0.0,0 STARLINK-3162,1 49411U 21104D   24179.17585229  .00000604  00000-0  56048-4 0  9996,2 49411  53.2169 124.7133 0001334 109.1889 250.9248 15.08841892146170,6917.875,95.437,540.662,538.817,0.0
49411.0,STARLINK-3162,PAYLOAD,2024-06-27 13:45:32,15.08847026,0.0001319,53.2169,122.9294,111.8199,248.2934,8.5344e-05,1.071e-05,0.0,0 STARLINK-3162,1 49411U 21104D   24179.57328713  .00001071  00000-0  85344-4 0  9993,2 49411  53.2169 122.9294 0001319 111.8199 248.2934 15.08847026145159,6917.859,95.437,540.636,538.811,0.0
49411.0,STARLINK-3162,PAYLOAD,2024-06-28 02:28:38,15.08832864,0.0001193,53.2168,120.5539,101.0891,259.0236,-2.1829e-05,-6.35e-06,0.0,0 STARLINK-3162,1 49411U 21104D   24180.10322018 -.00000635  00000-0 -21829-4 0  9991,2 49411  53.2168 120.5539 0001193 101.0891 259.0236 15.08832864146312,6917.902,95.438,540.593,538.942,0.0
49411.0,STARLINK-3162,PAYLOAD,2024-06-28 13:36:19,15.08845067,0.0001288,53.2171,118.4711,102.1783,257.9353,9.5866e-05,1.238e-05,0.0,0 STARLINK-3162,1 49411U 21104D   24180.56688923  .00001238  00000-0  95866-4 0  9991,2 49411  53.2171 118.4711 0001288 102.1783 257.9353 15.08845067145305,6917.865,95.437,540.621,538.839,0.0
49411.0,STARLINK-3162,PAYLOAD,2024-06-29 02:19:24,15.08840153,0.0001451,53.2175,116.0929,95.8522,264.2635,4.1291e-06,-2.22e-06,0.0,0 STARLINK-3162,1 49411U 21104D   24181.09681603 -.00000222  00000-0  41291-5 0  9995,2 49411  53.2175 116.0929 0001451  95.8522 264.2635 15.08840153146468,6917.88,95.438,540.749,538.741,0.0
49411.0,STARLINK-3162,PAYLOAD,2024-06-29 05:30:11,15.08841913,0.0001482,53.2163,115.4987,109.6234,250.4919,3.1523e-05,2.14e-06,0.0,0 STARLINK-3162,1 49411U 21104D   24181.22929445  .00000214  00000-0  31523-4 0  9995,2 49411  53.2163 115.4987 0001482 109.6234 250.4919 15.08841913145400,6917.875,95.437,540.765,538.714,0.0
49411.0,STARLINK-3162,PAYLOAD,2024-06-30 02:10:12,15.08827131,0.0001345,53.2174,111.6319,100.5023,259.6121,1.7748e-05,-6e-08,0.0,0 STARLINK-3162,1 49411U 21104D   24182.09042812 -.00000006  00000-0  17748-4 0  9998,2 49411  53.2174 111.6319 0001345 100.5023 259.6121 15.08827131146619,6917.92,95.438,540.715,538.854,0.0
49411.0,STARLINK-3162,PAYLOAD,2024-06-30 05:20:59,15.08831157,0.0001197,53.2168,111.0389,94.537,265.5759,-4.8521e-05,-1.06e-05,0.0,0 STARLINK-3162,1 49411U 21104D   24182.22290813 -.00001060  00000-0 -48521-4 0  9994,2 49411  53.2168 111.0389 0001197  94.5370 265.5759 15.08831157145553,6917.907,95.438,540.6,538.944,0.0
49411.0,STARLINK-3162,PAYLOAD,2024-07-01 02:00:59,15.08839304,0.0001241,53.2166,107.1755,89.8117,270.3017,0.00017593,2.513e-05,0.0,0 STARLINK-3162,1 49411U 21104D   24183.08402080  .00002513  00000-0  17593-3 0  9996,2 49411  53.2166 107.1755 0001241  89.8117 270.3017 15.08839304146767,6917.883,95.438,540.606,538.889,0.0
49411.0,STARLINK-3162,PAYLOAD,2024-07-01 11:33:16,15.08859737,0.0001252,53.218,105.3907,92.1325,267.9811,0.00018112,2.597e-05,0.0,0 STARLINK-3162,1 49411U 21104D   24183.48144607  .00002597  00000-0  18112-3 0  9998,2 49411  53.2180 105.3907 0001252  92.1325 267.9811 15.08859737146825,6917.82,95.436,540.551,538.819,0.0
